SKYSAT-C4               
1 41771U 16058B   26200.30766369  .00009565  00000+0  17513-3 0  9994
2 41771  96.9170 220.7540 0003540 112.6543 247.5084 15.49519373550443
SKYSAT-C5               
1 41772U 16058C   26200.58255279  .00003644  00000+0  11390-3 0  9997
2 41772  97.0451 239.7652 0003020 149.7638 210.3781 15.33753019548710
SKYSAT-C2               
1 41773U 16058D   26200.04838939  .00006875  00000+0  15928-3 0  9999
2 41773  97.0161 220.9571 0000917 329.4128  30.7067 15.42733343549961
SKYSAT-C3               
1 41774U 16058E   26200.54919936  .00013552  00000+0  21226-3 0  9990
2 41774  96.8996 230.1770 0002738 128.5680 231.5820 15.53830199551132
ALSAT-1B                
1 41785U 16059C   26200.86234804  .00000240  00000+0  45455-4 0  9993
2 41785  97.7758 208.2168 0010610 116.5469 243.6827 14.72296443525384
PATHFINDER 1            
1 41787U 16059E   26200.72467157  .00000251  00000+0  51891-4 0  9992
2 41787  97.8179 198.5344 0029946 101.9832 258.4732 14.67695974524480
SCATSAT 1               
1 41790U 16059H   26200.74275837  .00000591  00000+0  84281-4 0  9996
2 41790  98.1174 264.8425 0055535 142.1501 218.3635 14.79593568106407
GOKTURK 1A              
1 41875U 16073A   26200.87419429  .00000054  00000+0  19734-4 0  9992
2 41875  98.1203  95.0299 0001448  81.2418 278.8948 14.62794730513609
RESOURCESAT-2A          
1 41877U 16074A   26200.86900478 -.00000199  00000+0 -70743-4 0  9992
2 41877  98.7514 274.1043 0002140  17.4886 342.6364 14.21608841498942
CARTOSAT-2D             
1 41948U 17008A   26200.89260781  .00002229  00000+0  10877-3 0  9993
2 41948  97.4084 259.5842 0006284 125.7529 234.4291 15.19304524522543
SENTINEL-2B             
1 42063U 17013A   26200.86485723 -.00000091  00000+0 -17970-4 0  9999
2 42063  98.5678 275.1764 0001229  93.1090 267.0233 14.30815656489315
CARTOSAT-2E             
1 42767U 17036C   26200.84460400  .00001551  00000+0  76780-4 0  9992
2 42767  97.4251 260.1053 0003720 172.3731 187.7561 15.19271568503108
FORMOSAT-5              
1 42920U 17049A   26200.81033205  .00000026  00000+0  17781-4 0  9995
2 42920  98.2243 275.3937 0011013 349.4626  10.6337 14.50908538471402
SENTINEL-5P             
1 42969U 17064A   26200.83683965  .00000000  00000+0  20783-4 0  9999
2 42969  98.7928 142.7372 0001189  93.7030 266.4282 14.19523687454191
SKYSAT-C11              
1 42987U 17068A   26200.41278457  .00017128  00000+0  21760-3 0  9997
2 42987  97.4390 350.6929 0001420 153.6625 206.4704 15.59473968488261
SKYSAT-C10              
1 42988U 17068B   26200.82328991  .00005958  00000+0  17695-3 0  9992
2 42988  97.4545 338.0081 0001542 111.1835 248.9573 15.35171574487367
SKYSAT-C9               
1 42989U 17068C   26200.81628220  .00006975  00000+0  16403-3 0  9996
2 42989  97.4468 339.2528 0008235  29.6633 330.5080 15.42280897487780
SKYSAT-C8               
1 42990U 17068D   26200.35395888  .00005485  00000+0  15124-3 0  9992
2 42990  97.4564 337.4574 0001274 105.5249 254.6137 15.37539120487254
SKYSAT-C7               
1 42991U 17068E   26200.34857435  .00005447  00000+0  15041-3 0  9999
2 42991  97.4574 338.4439 0005321   7.1365 352.9954 15.37488793487315
SKYSAT-C6               
1 42992U 17068F   26200.82385339  .00004976  00000+0  15267-3 0  9998
2 42992  97.4612 338.7587 0004985  77.3310 282.8489 15.34215968487324
CARTOSAT-2F             
1 43111U 18004A   26200.87738302  .00001803  00000+0  88951-4 0  9997
2 43111  97.4766 260.1892 0002613 125.0026 235.1454 15.19192904472296
GAOFEN-1 02             
1 43259U 18031A   26200.82846911  .00000284  00000+0  48235-4 0  9994
2 43259  98.0505 263.2614 0001490 256.8861 103.2183 14.76475466447515
GAOFEN-1 03             
1 43260U 18031B   26200.87436656  .00000291  00000+0  49259-4 0  9997
2 43260  98.0500 263.1617 0002034   1.3031 358.8183 14.76465969447516
GAOFEN-1 04             
1 43262U 18031D   26200.85010716 -.00000242  00000+0 -27474-4 0  9995
2 43262  98.0507 263.3325 0000960  50.8918 309.2376 14.76439420447508
SENTINEL-3B             
1 43437U 18039A   26200.80008977  .00000034  00000+0  32250-4 0  9993
2 43437  98.6232 267.8617 0001247 118.8070 241.3236 14.26737156428770
GAOFEN-5 01             
1 43461U 18043A   26200.87543831  .00000146  00000+0  40189-4 0  9999
2 43461  98.4593 173.1527 0001816  22.0374 338.0903 14.60625156436463
GAOFEN-6                
1 43484U 18048A   26200.87286734  .00000296  00000+0  50181-4 0  9994
2 43484  98.0949 263.5857 0012031  68.5718 291.6773 14.76386389438210
GAOFEN-11 01            
1 43585U 18063A   26200.84807324  .00006594  00000+0  95718-4 0  9996
2 43585  97.1266 267.6517 0003685 181.7873 178.3370 15.56150751445423
ICESAT-2                
1 43613U 18070A   26200.82943604  .00004851  00000+0  17636-3 0  9992
2 43613  92.0087 299.8007 0005110  48.5103 311.6584 15.28222814437443
HYSIS                   
1 43719U 18096A   26200.82856101  .00000723  00000+0  10565-3 0  9990
2 43719  97.9820 267.3181 0001771  83.2008 276.9405 14.78676132412247
KAZSTSAT                
1 43783U 18099AB  26200.51952800  .00000025  00000+0  64938-5 0  9993
2 43783  97.4311 230.9920 0007191 322.8102  37.2624 14.99958068416153
