OBJECT_NAME,OBJECT_ID,EPOCH,MEAN_MOTION,ECCENTRICITY,INCLINATION,RA_OF_ASC_NODE,ARG_OF_PERICENTER,MEAN_ANOMALY,EPHEMERIS_TYPE,CLASSIFICATION_TYPE,NORAD_CAT_ID,ELEMENT_SET_NO,REV_AT_EPOCH,BSTAR,MEAN_MOTION_DOT,MEAN_MOTION_DDOT
SKYSAT-C4,2016-058B,2026-07-19T07:23:02.142816,15.49519373,.00035402,96.9170,220.7540,112.6543,247.5084,0,U,41771,999,55044,.17512998E-3,.9565E-4,0
SKYSAT-C5,2016-058C,2026-07-19T13:58:52.561056,15.33753019,.000302,97.0451,239.7652,149.7638,210.3781,0,U,41772,999,54871,.1139E-3,.3644E-4,0
SKYSAT-C2,2016-058D,2026-07-19T01:09:40.843296,15.42733343,.00009173,97.0161,220.9571,329.4128,30.7067,0,U,41773,999,54996,.15928038E-3,.6875E-4,0
SKYSAT-C3,2016-058E,2026-07-19T13:10:50.824704,15.53830199,.0002738,96.8996,230.1770,128.5680,231.5820,0,U,41774,999,55113,.21226E-3,.13552E-3,0
ALSAT-1B,2016-059C,2026-07-19T20:41:46.870656,14.72296443,.001061,97.7758,208.2168,116.5469,243.6827,0,U,41785,999,52538,.45455E-4,.24E-5,0
PATHFINDER 1,2016-059E,2026-07-19T17:23:31.623648,14.67695974,.0029946,97.8179,198.5344,101.9832,258.4732,0,U,41787,999,52448,.51891E-4,.251E-5,0
SCATSAT 1,2016-059H,2026-07-19T17:49:34.323168,14.79593568,.0055535,98.1174,264.8425,142.1501,218.3635,0,U,41790,999,10640,.84281E-4,.591E-5,0
GOKTURK 1A,2016-073A,2026-07-19T20:58:50.386656,14.62794730,.0001448,98.1203,95.0299,81.2418,278.8948,0,U,41875,999,51360,.19734E-4,.54E-6,0
RESOURCESAT-2A,2016-074A,2026-07-19T20:51:22.012992,14.21608841,.000214,98.7514,274.1043,17.4886,342.6364,0,U,41877,999,49894,-.70743E-4,-.199E-5,0
CARTOSAT-2D,2017-008A,2026-07-19T21:25:21.314784,15.19304524,.0006284,97.4084,259.5842,125.7529,234.4291,0,U,41948,999,52254,.10877E-3,.2229E-4,0
SENTINEL-2B,2017-013A,2026-07-19T20:45:23.664672,14.30815656,.0001229,98.5678,275.1764,93.1090,267.0233,0,U,42063,999,48931,-.1797E-4,-.91E-6,0
CARTOSAT-2E,2017-036C,2026-07-19T20:16:13.785600,15.19271568,.000372,97.4251,260.1053,172.3731,187.7561,0,U,42767,999,50310,.7678E-4,.1551E-4,0
FORMOSAT-5,2017-049A,2026-07-19T19:26:52.689120,14.50908538,.0011013,98.2243,275.3937,349.4626,10.6337,0,U,42920,999,47140,.17781E-4,.26E-6,0
SENTINEL-5P,2017-064A,2026-07-19T20:05:02.945760,14.19523687,.0001189,98.7928,142.7372,93.7030,266.4282,0,U,42969,999,45419,.20783E-4,0,0
SKYSAT-C11,2017-068A,2026-07-19T09:54:24.586848,15.59473968,.00014208,97.4390,350.6929,153.6625,206.4704,0,U,42987,999,48826,.21759549E-3,.17128E-3,0
SKYSAT-C10,2017-068B,2026-07-19T19:45:32.248224,15.35171574,.0001542,97.4545,338.0081,111.1835,248.9573,0,U,42988,999,48736,.17695E-3,.5958E-4,0
SKYSAT-C9,2017-068C,2026-07-19T19:35:26.782080,15.42280897,.0008235,97.4468,339.2528,29.6633,330.5080,0,U,42989,999,48778,.16403E-3,.6975E-4,0
SKYSAT-C8,2017-068D,2026-07-19T08:29:42.047232,15.37539120,.0001274,97.4564,337.4574,105.5249,254.6137,0,U,42990,999,48725,.15124E-3,.5485E-4,0
SKYSAT-C7,2017-068E,2026-07-19T08:21:56.823840,15.37488793,.00053212,97.4574,338.4439,7.1365,352.9954,0,U,42991,999,48731,.15041426E-3,.5447E-4,0
SKYSAT-C6,2017-068F,2026-07-19T19:46:20.932896,15.34215968,.0004985,97.4612,338.7587,77.3310,282.8489,0,U,42992,999,48732,.15267E-3,.4976E-4,0
CARTOSAT-2F,2018-004A,2026-07-19T21:03:25.892928,15.19192904,.0002613,97.4766,260.1892,125.0026,235.1454,0,U,43111,999,47229,.88951E-4,.1803E-4,0
GAOFEN-1 02,2018-031A,2026-07-19T19:52:59.731104,14.76475466,.000149,98.0505,263.2614,256.8861,103.2183,0,U,43259,999,44751,.48235E-4,.284E-5,0
GAOFEN-1 03,2018-031B,2026-07-19T20:59:05.270784,14.76465969,.0002034,98.0500,263.1617,1.3031,358.8183,0,U,43260,999,44751,.49259E-4,.291E-5,0
GAOFEN-1 04,2018-031D,2026-07-19T20:24:09.258624,14.76439420,.000096,98.0507,263.3325,50.8918,309.2376,0,U,43262,999,44750,-.27474E-4,-.242E-5,0
SENTINEL-3B,2018-039A,2026-07-19T19:12:07.756128,14.26737156,.0001247,98.6232,267.8617,118.8070,241.3236,0,U,43437,999,42877,.3225E-4,.34E-6,0
GAOFEN-5 01,2018-043A,2026-07-19T21:00:37.869984,14.60625156,.0001816,98.4593,173.1527,22.0374,338.0903,0,U,43461,999,43646,.40189E-4,.146E-5,0
GAOFEN-6,2018-048A,2026-07-19T20:56:55.738176,14.76386389,.0012031,98.0949,263.5857,68.5718,291.6773,0,U,43484,999,43821,.50181E-4,.296E-5,0
GAOFEN-11 01,2018-063A,2026-07-19T20:21:13.527936,15.56150751,.0003685,97.1266,267.6517,181.7873,178.3370,0,U,43585,999,44542,.95718E-4,.6594E-4,0
ICESAT-2,2018-070A,2026-07-19T19:54:23.273856,15.28222814,.000511,92.0087,299.8007,48.5103,311.6584,0,U,43613,999,43744,.17636E-3,.4851E-4,0
HYSIS,2018-096A,2026-07-19T19:53:07.671264,14.78676132,.0001771,97.9820,267.3181,83.2008,276.9405,0,U,43719,999,41224,.10565E-3,.723E-5,0
KAZSTSAT,2018-099AB,2026-07-19T12:28:07.219200,14.99958068,.00071916,97.4311,230.9920,322.8102,37.2624,0,U,43783,999,41615,.6493769E-5,.25E-6,0
